ONEWEB-0699             
1 61605U 24188M   26093.84330952 -.00000191  00000+0 -58253-3 0  9993
2 61605  87.8832  51.0589 0002459  70.1507 289.9885 13.10374641 73575
ONEWEB-0700             
1 61606U 24188N   26093.84496327 -.00000116  00000+0 -36823-3 0  9999
2 61606  87.8844  50.9560 0002201  62.6946 297.4405 13.10376956 73566
ONEWEB-0701             
1 61607U 24188P   26094.24336853  .00000513  00000+0  14321-2 0  9999
2 61607  87.8826  50.9788 0002576  67.2487 292.8913 13.10374922 73626
ONEWEB-0702             
1 61608U 24188Q   26094.24055744 -.00000393  00000+0 -11451-2 0  9996
2 61608  87.8921  35.6740 0002470  57.1655 302.9710 13.11415748 74799
ONEWEB-0704             
1 61609U 24188R   26093.62088895  .00000101  00000+0  25444-3 0  9994
2 61609  87.8838  51.0819 0002399  57.9374 302.1986 13.10374669 73524
ONEWEB-0705             
1 61610U 24188S   26094.23671254  .00000262  00000+0  71383-3 0  9992
2 61610  87.8831  50.9699 0001435  42.1650 317.9588 13.10376809 65774
ONEWEB-0706             
1 61611U 24188T   26093.91633481 -.00000384  00000+0 -11375-2 0  9998
2 61611  87.8822  51.0439 0001997  62.2221 297.9109 13.10376616 73657
ONEWEB-0707             
1 61612U 24188U   26093.84662376 -.00000041  00000+0 -15435-3 0  9998
2 61612  87.8832  51.0473 0002072  63.8431 296.2909 13.10377041 73587
ONEWEB-0708             
1 61613U 24188V   26094.24668345  .00000641  00000+0  18010-2 0  9991
2 61613  87.8817  50.9928 0001330  73.2671 286.8602 13.10374472 73615
