[{"OBJECT_NAME":"ONEWEB-0699","OBJECT_ID":"2024-188M","EPOCH":"2026-04-03T20:14:21.942528","MEAN_MOTION":13.10374641,"ECCENTRICITY":0.0002459,"INCLINATION":87.8832,"RA_OF_ASC_NODE":51.0589,"ARG_OF_PERICENTER":70.1507,"MEAN_ANOMALY":289.9885,"EPHEMERIS_TYPE":0,"CLASSIFICATION_TYPE":"U","NORAD_CAT_ID":61605,"ELEMENT_SET_NO":999,"REV_AT_EPOCH":7357,"BSTAR":-0.00058253,"MEAN_MOTION_DOT":-1.91e-06,"MEAN_MOTION_DDOT":0.0},{"OBJECT_NAME":"ONEWEB-0700","OBJECT_ID":"2024-188N","EPOCH":"2026-04-03T20:16:44.826528","MEAN_MOTION":13.10376956,"ECCENTRICITY":0.0002201,"INCLINATION":87.8844,"RA_OF_ASC_NODE":50.956,"ARG_OF_PERICENTER":62.6946,"MEAN_ANOMALY":297.4405,"EPHEMERIS_TYPE":0,"CLASSIFICATION_TYPE":"U","NORAD_CAT_ID":61606,"ELEMENT_SET_NO":999,"REV_AT_EPOCH":7356,"BSTAR":-0.00036823,"MEAN_MOTION_DOT":-1.16e-06,"MEAN_MOTION_DDOT":0.0},{"OBJECT_NAME":"ONEWEB-0701","OBJECT_ID":"2024-188P","EPOCH":"2026-04-04T05:50:27.040992","MEAN_MOTION":13.10374922,"ECCENTRICITY":0.0002576,"INCLINATION":87.8826,"RA_OF_ASC_NODE":50.9788,"ARG_OF_PERICENTER":67.2487,"MEAN_ANOMALY":292.8913,"EPHEMERIS_TYPE":0,"CLASSIFICATION_TYPE":"U","NORAD_CAT_ID":61607,"ELEMENT_SET_NO":999,"REV_AT_EPOCH":7362,"BSTAR":0.0014321000000000002,"MEAN_MOTION_DOT":5.13e-06,"MEAN_MOTION_DDOT":0.0},{"OBJECT_NAME":"ONEWEB-0702","OBJECT_ID":"2024-188Q","EPOCH":"2026-04-04T05:46:24.162816","MEAN_MOTION":13.11415748,"ECCENTRICITY":0.000247,"INCLINATION":87.8921,"RA_OF_ASC_NODE":35.674,"ARG_OF_PERICENTER":57.1655,"MEAN_ANOMALY":302.971,"EPHEMERIS_TYPE":0,"CLASSIFICATION_TYPE":"U","NORAD_CAT_ID":61608,"ELEMENT_SET_NO":999,"REV_AT_EPOCH":7479,"BSTAR":-0.0011451,"MEAN_MOTION_DOT":-3.93e-06,"MEAN_MOTION_DDOT":0.0},{"OBJECT_NAME":"ONEWEB-0704","OBJECT_ID":"2024-188R","EPOCH":"2026-04-03T14:54:04.805280","MEAN_MOTION":13.10374669,"ECCENTRICITY":0.0002399,"INCLINATION":87.8838,"RA_OF_ASC_NODE":51.0819,"ARG_OF_PERICENTER":57.9374,"MEAN_ANOMALY":302.1986,"EPHEMERIS_TYPE":0,"CLASSIFICATION_TYPE":"U","NORAD_CAT_ID":61609,"ELEMENT_SET_NO":999,"REV_AT_EPOCH":7352,"BSTAR":0.00025444,"MEAN_MOTION_DOT":1.01e-06,"MEAN_MOTION_DDOT":0.0},{"OBJECT_NAME":"ONEWEB-0705","OBJECT_ID":"2024-188S","EPOCH":"2026-04-04T05:40:51.963456","MEAN_MOTION":13.10376809,"ECCENTRICITY":0.0001435,"INCLINATION":87.8831,"RA_OF_ASC_NODE":50.9699,"ARG_OF_PERICENTER":42.165,"MEAN_ANOMALY":317.9588,"EPHEMERIS_TYPE":0,"CLASSIFICATION_TYPE":"U","NORAD_CAT_ID":61610,"ELEMENT_SET_NO":999,"REV_AT_EPOCH":6577,"BSTAR":0.0007138299999999999,"MEAN_MOTION_DOT":2.62e-06,"MEAN_MOTION_DDOT":0.0},{"OBJECT_NAME":"ONEWEB-0706","OBJECT_ID":"2024-188T","EPOCH":"2026-04-03T21:59:31.327584","MEAN_MOTION":13.10376616,"ECCENTRICITY":0.0001997,"INCLINATION":87.8822,"RA_OF_ASC_NODE":51.0439,"ARG_OF_PERICENTER":62.2221,"MEAN_ANOMALY":297.9109,"EPHEMERIS_TYPE":0,"CLASSIFICATION_TYPE":"U","NORAD_CAT_ID":61611,"ELEMENT_SET_NO":999,"REV_AT_EPOCH":7365,"BSTAR":-0.0011375,"MEAN_MOTION_DOT":-3.84e-06,"MEAN_MOTION_DDOT":0.0},{"OBJECT_NAME":"ONEWEB-0707","OBJECT_ID":"2024-188U","EPOCH":"2026-04-03T20:19:08.292864","MEAN_MOTION":13.10377041,"ECCENTRICITY":0.0002072,"INCLINATION":87.8832,"RA_OF_ASC_NODE":51.0473,"ARG_OF_PERICENTER":63.8431,"MEAN_ANOMALY":296.2909,"EPHEMERIS_TYPE":0,"CLASSIFICATION_TYPE":"U","NORAD_CAT_ID":61612,"ELEMENT_SET_NO":999,"REV_AT_EPOCH":7358,"BSTAR":-0.00015434999999999998,"MEAN_MOTION_DOT":-4.1e-07,"MEAN_MOTION_DDOT":0.0},{"OBJECT_NAME":"ONEWEB-0708","OBJECT_ID":"2024-188V","EPOCH":"2026-04-04T05:55:13.450080","MEAN_MOTION":13.10374472,"ECCENTRICITY":0.000133,"INCLINATION":87.8817,"RA_OF_ASC_NODE":50.9928,"ARG_OF_PERICENTER":73.2671,"MEAN_ANOMALY":286.8602,"EPHEMERIS_TYPE":0,"CLASSIFICATION_TYPE":"U","NORAD_CAT_ID":61613,"ELEMENT_SET_NO":999,"REV_AT_EPOCH":7361,"BSTAR":0.001801,"MEAN_MOTION_DOT":6.41e-06,"MEAN_MOTION_DDOT":0.0}]